[{"OBJECT_NAME":"SL-8 R/B","OBJECT_ID":"1991-006B","EPOCH":"2026-04-15T11:04:50.276064","MEAN_MOTION":13.77501129,"ECCENTRICITY":0.00210227,"INCLINATION":82.9413,"RA_OF_ASC_NODE":142.7023,"ARG_OF_PERICENTER":293.5927,"MEAN_ANOMALY":180.4322,"EPHEMERIS_TYPE":0,"CLASSIFICATION_TYPE":"U","NORAD_CAT_ID":21088,"ELEMENT_SET_NO":999,"REV_AT_EPOCH":76913,"BSTAR":0.00010831806,"MEAN_MOTION_DOT":1.23e-6,"MEAN_MOTION_DDOT":0},{"OBJECT_NAME":"OKEAN-3","OBJECT_ID":"1991-039A","EPOCH":"2026-04-15T12:21:20.265696","MEAN_MOTION":15.05013759,"ECCENTRICITY":0.00138039,"INCLINATION":82.5138,"RA_OF_ASC_NODE":301.1536,"ARG_OF_PERICENTER":199.4998,"MEAN_ANOMALY":160.5702,"EPHEMERIS_TYPE":0,"CLASSIFICATION_TYPE":"U","NORAD_CAT_ID":21397,"ELEMENT_SET_NO":999,"REV_AT_EPOCH":87057,"BSTAR":6.90056e-5,"MEAN_MOTION_DOT":1.009e-5,"MEAN_MOTION_DDOT":0},{"OBJECT_NAME":"COSMOS 2151","OBJECT_ID":"1991-042A","EPOCH":"2026-04-15T13:38:35.284416","MEAN_MOTION":15.00266082,"ECCENTRICITY":0.00108296,"INCLINATION":82.4977,"RA_OF_ASC_NODE":48.0945,"ARG_OF_PERICENTER":299.5526,"MEAN_ANOMALY":60.4618,"EPHEMERIS_TYPE":0,"CLASSIFICATION_TYPE":"U","NORAD_CAT_ID":21422,"ELEMENT_SET_NO":999,"REV_AT_EPOCH":86872,"BSTAR":8.3777493e-5,"MEAN_MOTION_DOT":1.076e-5,"MEAN_MOTION_DDOT":0},{"OBJECT_NAME":"SL-14 R/B","OBJECT_ID":"1991-042B","EPOCH":"2026-04-15T11:47:31.469280","MEAN_MOTION":14.81865053,"ECCENTRICITY":0.00184319,"INCLINATION":82.4957,"RA_OF_ASC_NODE":185.6837,"ARG_OF_PERICENTER":118.1406,"MEAN_ANOMALY":242.1674,"EPHEMERIS_TYPE":0,"CLASSIFICATION_TYPE":"U","NORAD_CAT_ID":21423,"ELEMENT_SET_NO":999,"REV_AT_EPOCH":85852,"BSTAR":2.2998456e-5,"MEAN_MOTION_DOT":2.06e-6,"MEAN_MOTION_DDOT":0},{"OBJECT_NAME":"ERS-1","OBJECT_ID":"1991-050A","EPOCH":"2026-04-15T14:34:30.150624","MEAN_MOTION":14.39477477,"ECCENTRICITY":0.00331593,"INCLINATION":98.7848,"RA_OF_ASC_NODE":124.7656,"ARG_OF_PERICENTER":92.8498,"MEAN_ANOMALY":267.6485,"EPHEMERIS_TYPE":0,"CLASSIFICATION_TYPE":"U","NORAD_CAT_ID":21574,"ELEMENT_SET_NO":999,"REV_AT_EPOCH":82104,"BSTAR":6.5795365e-5,"MEAN_MOTION_DOT":1.6e-6,"MEAN_MOTION_DDOT":0},{"OBJECT_NAME":"ARIANE 40 R/B","OBJECT_ID":"1991-050F","EPOCH":"2026-04-15T03:42:19.390176","MEAN_MOTION":14.42919976,"ECCENTRICITY":0.00024048,"INCLINATION":98.194,"RA_OF_ASC_NODE":156.0087,"ARG_OF_PERICENTER":347.7291,"MEAN_ANOMALY":12.3841,"EPHEMERIS_TYPE":0,"CLASSIFICATION_TYPE":"U","NORAD_CAT_ID":21610,"ELEMENT_SET_NO":999,"REV_AT_EPOCH":82425,"BSTAR":5.3872001e-5,"MEAN_MOTION_DOT":1.38e-6,"MEAN_MOTION_DDOT":0},{"OBJECT_NAME":"INTERCOSMOS 25","OBJECT_ID":"1991-086A","EPOCH":"2026-04-15T05:22:02.400960","MEAN_MOTION":12.12114434,"ECCENTRICITY":0.1485932,"INCLINATION":82.5992,"RA_OF_ASC_NODE":287.9142,"ARG_OF_PERICENTER":38.2048,"MEAN_ANOMALY":331.5451,"EPHEMERIS_TYPE":0,"CLASSIFICATION_TYPE":"U","NORAD_CAT_ID":21819,"ELEMENT_SET_NO":999,"REV_AT_EPOCH":50111,"BSTAR":0.00013457,"MEAN_MOTION_DOT":7.13e-6,"MEAN_MOTION_DDOT":0},{"OBJECT_NAME":"SL-8 R/B","OBJECT_ID":"1992-008B","EPOCH":"2026-04-15T12:27:01.594080","MEAN_MOTION":13.7597018,"ECCENTRICITY":0.00352663,"INCLINATION":82.9262,"RA_OF_ASC_NODE":240.3778,"ARG_OF_PERICENTER":33.8306,"MEAN_ANOMALY":37.9387,"EPHEMERIS_TYPE":0,"CLASSIFICATION_TYPE":"U","NORAD_CAT_ID":21876,"ELEMENT_SET_NO":999,"REV_AT_EPOCH":71448,"BSTAR":-6.847364e-6,"MEAN_MOTION_DOT":9.0e-8,"MEAN_MOTION_DDOT":0},{"OBJECT_NAME":"SL-8 R/B","OBJECT_ID":"1992-020B","EPOCH":"2026-04-15T13:59:49.676640","MEAN_MOTION":13.75549783,"ECCENTRICITY":0.00287268,"INCLINATION":82.9276,"RA_OF_ASC_NODE":126.3627,"ARG_OF_PERICENTER":192.0354,"MEAN_ANOMALY":289.5817,"EPHEMERIS_TYPE":0,"CLASSIFICATION_TYPE":"U","NORAD_CAT_ID":21938,"ELEMENT_SET_NO":999,"REV_AT_EPOCH":70620,"BSTAR":-4.7413026e-5,"MEAN_MOTION_DOT":-3.1e-7,"MEAN_MOTION_DDOT":0},{"OBJECT_NAME":"USA 81","OBJECT_ID":"1992-023A","EPOCH":"2026-04-15T11:22:04.771776","MEAN_MOTION":14.32379896,"ECCENTRICITY":0.00012342,"INCLINATION":85.0034,"RA_OF_ASC_NODE":110.2077,"ARG_OF_PERICENTER":84.8038,"MEAN_ANOMALY":275.3295,"EPHEMERIS_TYPE":0,"CLASSIFICATION_TYPE":"U","NORAD_CAT_ID":21949,"ELEMENT_SET_NO":999,"REV_AT_EPOCH":10005,"BSTAR":3.6869538e-5,"MEAN_MOTION_DOT":1.2e-6,"MEAN_MOTION_DDOT":0},{"OBJECT_NAME":"COSMOS 2219","OBJECT_ID":"1992-076A","EPOCH":"2026-04-15T05:37:04.914624","MEAN_MOTION":14.14088999,"ECCENTRICITY":0.0017333,"INCLINATION":71.0586,"RA_OF_ASC_NODE":301.6758,"ARG_OF_PERICENTER":149.9362,"MEAN_ANOMALY":210.276,"EPHEMERIS_TYPE":0,"CLASSIFICATION_TYPE":"U","NORAD_CAT_ID":22219,"ELEMENT_SET_NO":999,"REV_AT_EPOCH":72354,"BSTAR":9.4865e-5,"MEAN_MOTION_DOT":1.34e-6,"MEAN_MOTION_DDOT":0},{"OBJECT_NAME":"SL-16 R/B","OBJECT_ID":"1992-076B","EPOCH":"2026-04-15T11:44:34.982592","MEAN_MOTION":14.16866333,"ECCENTRICITY":0.0011511,"INCLINATION":70.9978,"RA_OF_ASC_NODE":110.8571,"ARG_OF_PERICENTER":29.8459,"MEAN_ANOMALY":83.9868,"EPHEMERIS_TYPE":0,"CLASSIFICATION_TYPE":"U","NORAD_CAT_ID":22220,"ELEMENT_SET_NO":999,"REV_AT_EPOCH":72704,"BSTAR":0.00010653716,"MEAN_MOTION_DOT":1.66e-6,"MEAN_MOTION_DDOT":0},{"OBJECT_NAME":"COSMOS 2221","OBJECT_ID":"1992-080A","EPOCH":"2026-04-15T14:51:02.077056","MEAN_MOTION":14.9636002,"ECCENTRICITY":0.0015569,"INCLINATION":82.503,"RA_OF_ASC_NODE":243.6965,"ARG_OF_PERICENTER":71.0293,"MEAN_ANOMALY":289.2615,"EPHEMERIS_TYPE":0,"CLASSIFICATION_TYPE":"U","NORAD_CAT_ID":22236,"ELEMENT_SET_NO":999,"REV_AT_EPOCH":78631,"BSTAR":9.3147836e-5,"MEAN_MOTION_DOT":1.083e-5,"MEAN_MOTION_DDOT":0},{"OBJECT_NAME":"SL-16 R/B","OBJECT_ID":"1992-093B","EPOCH":"2026-04-15T11:42:32.067360","MEAN_MOTION":14.15453512,"ECCENTRICITY":0.00064223,"INCLINATION":71.0199,"RA_OF_ASC_NODE":287.0164,"ARG_OF_PERICENTER":256.6393,"MEAN_ANOMALY":103.4014,"EPHEMERIS_TYPE":0,"CLASSIFICATION_TYPE":"U","NORAD_CAT_ID":22285,"ELEMENT_SET_NO":999,"REV_AT_EPOCH":71836,"BSTAR":-3.1073322e-5,"MEAN_MOTION_DOT":-1.08e-6,"MEAN_MOTION_DDOT":0},{"OBJECT_NAME":"COSMOS 2228","OBJECT_ID":"1992-094A","EPOCH":"2026-04-15T13:02:36.874176","MEAN_MOTION":14.97380285,"ECCENTRICITY":0.00182194,"INCLINATION":82.5205,"RA_OF_ASC_NODE":202.0278,"ARG_OF_PERICENTER":173.507,"MEAN_ANOMALY":186.6392,"EPHEMERIS_TYPE":0,"CLASSIFICATION_TYPE":"U","NORAD_CAT_ID":22286,"ELEMENT_SET_NO":999,"REV_AT_EPOCH":78157,"BSTAR":9.9990499e-5,"MEAN_MOTION_DOT":1.192e-5,"MEAN_MOTION_DDOT":0},{"OBJECT_NAME":"SL-16 R/B","OBJECT_ID":"1993-016B","EPOCH":"2026-04-15T09:22:31.663200","MEAN_MOTION":14.15314009,"ECCENTRICITY":0.00126993,"INCLINATION":71.0063,"RA_OF_ASC_NODE":138.1021,"ARG_OF_PERICENTER":268.0994,"MEAN_ANOMALY":91.8675,"EPHEMERIS_TYPE":0,"CLASSIFICATION_TYPE":"U","NORAD_CAT_ID":22566,"ELEMENT_SET_NO":999,"REV_AT_EPOCH":70736,"BSTAR":1.9786754e-5,"MEAN_MOTION_DOT":-9.0e-8,"MEAN_MOTION_DDOT":0},{"OBJECT_NAME":"COSMOS 2242","OBJECT_ID":"1993-024A","EPOCH":"2026-04-15T14:36:28.515168","MEAN_MOTION":14.96713905,"ECCENTRICITY":0.00164327,"INCLINATION":82.5191,"RA_OF_ASC_NODE":231.3958,"ARG_OF_PERICENTER":176.3999,"MEAN_ANOMALY":183.7345,"EPHEMERIS_TYPE":0,"CLASSIFICATION_TYPE":"U","NORAD_CAT_ID":22626,"ELEMENT_SET_NO":999,"REV_AT_EPOCH":78591,"BSTAR":9.6387925e-5,"MEAN_MOTION_DOT":1.13e-5,"MEAN_MOTION_DDOT":0}]
