{"fetched_at":"2026-04-16T02:30:09Z","count":2713,"tles":[{"name":"SL-8 R/B","line1":"1 21938U 92020B   26105.58321385 -.00000031  00000+0 -47413-4 0  9993","line2":"2 21938  82.9276 126.3627 0028726 192.0354 289.5817 13.75549783706202","category":"Other"},{"name":"OKEAN-3","line1":"1 21397U 91039A   26105.51481789  .00001009  00000+0  69006-4 0  9995","line2":"2 21397  82.5138 301.1536 0013803 199.4998 160.5702 15.05013759870578","category":"Other"},{"name":"SL-16 R/B","line1":"1 22285U 92093B   26105.48787115 -.00000108  00000+0 -31073-4 0  9995","line2":"2 22285  71.0199 287.0164 0006422 256.6393 103.4014 14.15453512718363","category":"Other"},{"name":"COSMOS 2151","line1":"1 21422U 91042A   26105.56846394  .00001076  00000+0  83777-4 0  9995","line2":"2 21422  82.4977  48.0945 0010829 299.5526  60.4618 15.00266082868724","category":"Other"},{"name":"COSMOS 2228","line1":"1 22286U 92094A   26105.54348234  .00001192  00000+0  99990-4 0  9993","line2":"2 22286  82.5205 202.0278 0018219 173.5070 186.6392 14.97380285781579","category":"Other"},{"name":"SL-14 R/B","line1":"1 21423U 91042B   26105.49133645  .00000206  00000+0  22998-4 0  9998","line2":"2 21423  82.4957 185.6837 0018431 118.1406 242.1674 14.81865053858520","category":"Other"},{"name":"USA 81","line1":"1 21949U 92023A   26105.47366634  .00000120  00000+0  36870-4 0  9994","line2":"2 21949  85.0034 110.2077 0001234  84.8038 275.3295 14.32379896100057","category":"Military"},{"name":"SL-8 R/B","line1":"1 21088U 91006B   26105.46169301  .00000123  00000+0  10832-3 0  9991","line2":"2 21088  82.9413 142.7023 0021022 293.5927 180.4322 13.77501129769133","category":"Other"},{"name":"SL-16 R/B","line1":"1 22566U 93016B   26105.39064425 -.00000009  00000+0  19787-4 0  9992","line2":"2 22566  71.0063 138.1021 0012699 268.0994  91.8675 14.15314009707368","category":"Other"},{"name":"COSMOS 2219","line1":"1 22219U 92076A   26105.23408466  .00000134  00000+0  94865-4 0  9990","line2":"2 22219  71.0586 301.6758 0017333 149.9362 210.2760 14.14088999723548","category":"Other"},{"name":"ERS-1","line1":"1 21574U 91050A   26105.60729341  .00000160  00000+0  65795-4 0  9992","line2":"2 21574  98.7848 124.7656 0033159  92.8498 267.6485 14.39477477821043","category":"Other"},{"name":"COSMOS 2242","line1":"1 22626U 93024A   26105.60866337  .00001130  00000+0  96388-4 0  9991","line2":"2 22626  82.5191 231.3958 0016432 176.3999 183.7345 14.96713905785913","category":"Other"},{"name":"SL-16 R/B","line1":"1 22220U 92076B   26105.48929378  .00000166  00000+0  10654-3 0  9997","line2":"2 22220  70.9978 110.8571 0011511  29.8459  83.9868 14.16866333727042","category":"Other"},{"name":"INTERCOSMOS 25","line1":"1 21819U 91086A   26105.22363890  .00000713  00000+0  13457-3 0  9995","line2":"2 21819  82.5992 287.9142 1485932  38.2048 331.5451 12.12114434501111","category":"Other"},{"name":"SL-8 R/B","line1":"1 21876U 92008B   26105.51876845  .00000009  00000+0 -68474-5 0  9994","line2":"2 21876  82.9262 240.3778 0035266  33.8306  37.9387 13.75970180714483","category":"Other"},{"name":"ARIANE 40 R/B","line1":"1 21610U 91050F   26105.15439109  .00000138  00000+0  53872-4 0  9991","line2":"2 21610  98.1940 156.0087 0002404 347.7291  12.3841 14.42919976824255","category":"Other"},{"name":"COSMOS 2221","line1":"1 22236U 92080A   26105.61877404  .00001083  00000+0  93148-4 0  9995","line2":"2 22236  82.5030 243.6965 0015569  71.0293 289.2615 14.96360020786317","category":"Other"}]}